[{"OBJECT_NAME":"FLOCK 4G-14","OBJECT_ID":"2025-009BL","EPOCH":"2026-03-09T18:12:31.432032","MEAN_MOTION":15.27197201,"ECCENTRICITY":0.00030064,"INCLINATION":97.4064,"RA_OF_ASC_NODE":151.1836,"ARG_OF_PERICENTER":318.3639,"MEAN_ANOMALY":41.7371,"EPHEMERIS_TYPE":0,"CLASSIFICATION_TYPE":"U","NORAD_CAT_ID":62667,"ELEMENT_SET_NO":999,"REV_AT_EPOCH":6371,"BSTAR":0.00042675627,"MEAN_MOTION_DOT":0.0001131,"MEAN_MOTION_DDOT":0},{"OBJECT_NAME":"STARLINK-35986","OBJECT_ID":"2025-281F","EPOCH":"2026-03-09T03:21:20.691648","MEAN_MOTION":15.27597385,"ECCENTRICITY":0.0001048,"INCLINATION":43.0001,"RA_OF_ASC_NODE":346.3912,"ARG_OF_PERICENTER":278.0103,"MEAN_ANOMALY":82.0629,"EPHEMERIS_TYPE":0,"CLASSIFICATION_TYPE":"U","NORAD_CAT_ID":66853,"ELEMENT_SET_NO":999,"REV_AT_EPOCH":1610,"BSTAR":0.00095032814,"MEAN_MOTION_DOT":0.00025995,"MEAN_MOTION_DDOT":0}]
